{"type": "FeatureCollection", "features": [ {"type": "Feature", "properties": {"norad_id": 60453, "name": "LEGION 4", "group": "resource", "lat": -41.0355576294403, "lon": -25.405455496173353, "alt_km": 515.8920502105493, "timestamp": "2025-12-02T23:34:15.171526+00:00", "meta": {"OBJECT_NAME": "LEGION 4", "OBJECT_ID": "2024-146B", "EPOCH": "2025-12-02T11:24:27.280800", "MEAN_MOTION": 15.1564379, "ECCENTRICITY": 0.0009872, "INCLINATION": 45.0375, "RA_OF_ASC_NODE": 96.8703, "ARG_OF_PERICENTER": 257.7186, "MEAN_ANOMALY": 102.2587, "EPHEMERIS_TYPE": 0, "CLASSIFICATION_TYPE": "U", "NORAD_CAT_ID": 60453, "ELEMENT_SET_NO": 999, "REV_AT_EPOCH": 7102, "BSTAR": 0.00042238, "MEAN_MOTION_DOT": 7.92e-05, "MEAN_MOTION_DDOT": 0}, "tle": {"line1": "1 60453U 24146B   25336.47531575  .00007920  00000+0  42238-3 0  9990", "line2": "2 60453  45.0375  96.8703 0009872 257.7186 102.2587 15.15643790 71025"}}, "geometry": {"type": "Point", "coordinates": [-25.405455496173353, -41.0355576294403]}}, {"type": "Feature", "properties": {"norad_id": 60989, "name": "SENTINEL-2C", "group": "resource", "lat": 8.426829855567282, "lon": -129.11495653588995, "alt_km": 790.4821567035842, "timestamp": "2025-12-02T23:34:15.171538+00:00", "meta": {"OBJECT_NAME": "SENTINEL-2C", "OBJECT_ID": "2024-157A", "EPOCH": "2025-12-02T05:59:22.248384", "MEAN_MOTION": 14.30823406, "ECCENTRICITY": 0.0001164, "INCLINATION": 98.5615, "RA_OF_ASC_NODE": 48.8849, "ARG_OF_PERICENTER": 102.2564, "MEAN_ANOMALY": 257.8749, "EPHEMERIS_TYPE": 0, "CLASSIFICATION_TYPE": "U", "NORAD_CAT_ID": 60989, "ELEMENT_SET_NO": 999, "REV_AT_EPOCH": 6482, "BSTAR": 9.9964e-05, "MEAN_MOTION_DOT": 2.18e-06, "MEAN_MOTION_DDOT": 0}, "tle": {"line1": "1 60989U 24157A   25336.24956306  .00000218  00000+0  99964-4 0  9996", "line2": "2 60989  98.5615  48.8849 0001164 102.2564 257.8749 14.30823406 64824"}}, "geometry": {"type": "Point", "coordinates": [-129.11495653588995, 8.426829855567282]}}, {"type": "Feature", "properties": {"norad_id": 61735, "name": "IONOSFERA-M 1", "group": "resource", "lat": 1.738894255334339, "lon": -153.36310817416665, "alt_km": 818.0409397568947, "timestamp": "2025-12-02T23:34:15.171549+00:00", "meta": {"OBJECT_NAME": "IONOSFERA-M 1", "OBJECT_ID": "2024-199A", "EPOCH": "2025-12-02T13:26:07.425024", "MEAN_MOTION": 14.22710325, "ECCENTRICITY": 0.0001407, "INCLINATION": 98.7409, "RA_OF_ASC_NODE": 206.4856, "ARG_OF_PERICENTER": 36.3001, "MEAN_ANOMALY": 323.8272, "EPHEMERIS_TYPE": 0, "CLASSIFICATION_TYPE": "U", "NORAD_CAT_ID": 61735, "ELEMENT_SET_NO": 999, "REV_AT_EPOCH": 9974, "BSTAR": 6.7063e-05, "MEAN_MOTION_DOT": 1.06e-06, "MEAN_MOTION_DDOT": 0}, "tle": {"line1": "1 61735U 24199A   25336.55980816  .00000106  00000+0  67063-4 0  9990", "line2": "2 61735  98.7409 206.4856 0001407  36.3001 323.8272 14.22710325 99740"}}, "geometry": {"type": "Point", "coordinates": [-153.36310817416665, 1.738894255334339]}}, {"type": "Feature", "properties": {"norad_id": 61736, "name": "IONOSFERA-M 2", "group": "resource", "lat": -4.552240467018697, "lon": 26.1152309126417, "alt_km": 819.2430414141627, "timestamp": "2025-12-02T23:34:15.171559+00:00", "meta": {"OBJECT_NAME": "IONOSFERA-M 2", "OBJECT_ID": "2024-199B", "EPOCH": "2025-12-02T12:34:45.682176", "MEAN_MOTION": 14.22712418, "ECCENTRICITY": 0.0001349, "INCLINATION": 98.7408, "RA_OF_ASC_NODE": 206.3628, "ARG_OF_PERICENTER": 122.9166, "MEAN_ANOMALY": 237.2141, "EPHEMERIS_TYPE": 0, "CLASSIFICATION_TYPE": "U", "NORAD_CAT_ID": 61736, "ELEMENT_SET_NO": 999, "REV_AT_EPOCH": 10286, "BSTAR": 6.8928e-05, "MEAN_MOTION_DOT": 1.1e-06, "MEAN_MOTION_DDOT": 0}, "tle": {"line1": "1 61736U 24199B   25336.52413984  .00000110  00000+0  68928-4 0  9991", "line2": "2 61736  98.7408 206.3628 0001349 122.9166 237.2141 14.22712418102861"}}, "geometry": {"type": "Point", "coordinates": [26.1152309126417, -4.552240467018697]}}, {"type": "Feature", "properties": {"norad_id": 63772, "name": "BIOMASS", "group": "resource", "lat": -63.86362138575372, "lon": -34.675590251328195, "alt_km": 676.9369224920774, "timestamp": "2025-12-02T23:34:15.171569+00:00", "meta": {"OBJECT_NAME": "BIOMASS", "OBJECT_ID": "2025-090A", "EPOCH": "2025-12-02T11:00:11.877120", "MEAN_MOTION": 14.67543778, "ECCENTRICITY": 0.000121, "INCLINATION": 98.0707, "RA_OF_ASC_NODE": 161.6172, "ARG_OF_PERICENTER": 82.8919, "MEAN_ANOMALY": 277.2423, "EPHEMERIS_TYPE": 0, "CLASSIFICATION_TYPE": "U", "NORAD_CAT_ID": 63772, "ELEMENT_SET_NO": 999, "REV_AT_EPOCH": 3183, "BSTAR": 0.00034348, "MEAN_MOTION_DOT": 1.9e-05, "MEAN_MOTION_DDOT": 0}, "tle": {"line1": "1 63772U 25090A   25336.45847080  .00001900  00000+0  34348-3 0  9990", "line2": "2 63772  98.0707 161.6172 0001210  82.8919 277.2423 14.67543778 31837"}}, "geometry": {"type": "Point", "coordinates": [-34.675590251328195, -63.86362138575372]}}, {"type": "Feature", "properties": {"norad_id": 64694, "name": "GOSAT-GW (IBUKI GW)", "group": "resource", "lat": 81.1624877362842, "lon": 158.05546081217796, "alt_km": 660.4310310139335, "timestamp": "2025-12-02T23:34:15.171579+00:00", "meta": {"OBJECT_NAME": "GOSAT-GW (IBUKI GW)", "OBJECT_ID": "2025-141A", "EPOCH": "2025-11-30T05:41:32.267328", "MEAN_MOTION": 14.67567435, "ECCENTRICITY": 0.00014369, "INCLINATION": 98.0401, "RA_OF_ASC_NODE": 269.9775, "ARG_OF_PERICENTER": 82.921, "MEAN_ANOMALY": 277.2158, "EPHEMERIS_TYPE": 0, "CLASSIFICATION_TYPE": "U", "NORAD_CAT_ID": 64694, "ELEMENT_SET_NO": 999, "REV_AT_EPOCH": 2266, "BSTAR": 0.00019762357, "MEAN_MOTION_DOT": 1.074e-05, "MEAN_MOTION_DDOT": 0}, "tle": {"line1": "1 64694U 25141A   25334.23717902  .00001074  00000+0  19762-3 0  9999", "line2": "2 64694  98.0401 269.9775 0001436  82.9210 277.2158 14.67567435 22660"}}, "geometry": {"type": "Point", "coordinates": [158.05546081217796, 81.1624877362842]}}, {"type": "Feature", "properties": {"norad_id": 64876, "name": "IONOSFERA-M 3", "group": "resource", "lat": -80.7026837967261, "lon": 6.326191315016235, "alt_km": 829.4636142609179, "timestamp": "2025-12-02T23:34:15.171590+00:00", "meta": {"OBJECT_NAME": "IONOSFERA-M 3", "OBJECT_ID": "2025-155A", "EPOCH": "2025-12-02T12:09:04.530816", "MEAN_MOTION": 14.21436885, "ECCENTRICITY": 0.0002402, "INCLINATION": 98.5768, "RA_OF_ASC_NODE": 298.6628, "ARG_OF_PERICENTER": 75.8607, "MEAN_ANOMALY": 284.2838, "EPHEMERIS_TYPE": 0, "CLASSIFICATION_TYPE": "U", "NORAD_CAT_ID": 64876, "ELEMENT_SET_NO": 999, "REV_AT_EPOCH": 1846, "BSTAR": 7.2625e-05, "MEAN_MOTION_DOT": 1.16e-06, "MEAN_MOTION_DDOT": 0}, "tle": {"line1": "1 64876U 25155A   25336.50630244  .00000116  00000+0  72625-4 0  9995", "line2": "2 64876  98.5768 298.6628 0002402  75.8607 284.2838 14.21436885 18464"}}, "geometry": {"type": "Point", "coordinates": [6.326191315016235, -80.7026837967261]}}, {"type": "Feature", "properties": {"norad_id": 64877, "name": "IONOSFERA-M 4", "group": "resource", "lat": 80.43481447655361, "lon": -177.3724630067723, "alt_km": 811.8862066851598, "timestamp": "2025-12-02T23:34:15.171599+00:00", "meta": {"OBJECT_NAME": "IONOSFERA-M 4", "OBJECT_ID": "2025-155B", "EPOCH": "2025-12-02T11:18:13.096224", "MEAN_MOTION": 14.21437888, "ECCENTRICITY": 0.0001763, "INCLINATION": 98.5767, "RA_OF_ASC_NODE": 298.5482, "ARG_OF_PERICENTER": 74.1571, "MEAN_ANOMALY": 285.9801, "EPHEMERIS_TYPE": 0, "CLASSIFICATION_TYPE": "U", "NORAD_CAT_ID": 64877, "ELEMENT_SET_NO": 999, "REV_AT_EPOCH": 1845, "BSTAR": 7.199e-05, "MEAN_MOTION_DOT": 1.15e-06, "MEAN_MOTION_DDOT": 0}, "tle": {"line1": "1 64877U 25155B   25336.47098491  .00000115  00000+0  71990-4 0  9997", "line2": "2 64877  98.5767 298.5482 0001763  74.1571 285.9801 14.21437888 18453"}}, "geometry": {"type": "Point", "coordinates": [-177.3724630067723, 80.43481447655361]}}, {"type": "Feature", "properties": {"norad_id": 64899, "name": "MICROCARB", "group": "resource", "lat": -80.93354430148028, "lon": 114.33389601241961, "alt_km": 663.7901008161398, "timestamp": "2025-12-02T23:34:15.171610+00:00", "meta": {"OBJECT_NAME": "MICROCARB", "OBJECT_ID": "2025-156A", "EPOCH": "2025-12-02T04:23:02.947200", "MEAN_MOTION": 14.72028029, "ECCENTRICITY": 0.0016451, "INCLINATION": 98.0036, "RA_OF_ASC_NODE": 51.697, "ARG_OF_PERICENTER": 177.5661, "MEAN_ANOMALY": 182.5629, "EPHEMERIS_TYPE": 0, "CLASSIFICATION_TYPE": "U", "NORAD_CAT_ID": 64899, "ELEMENT_SET_NO": 999, "REV_AT_EPOCH": 1898, "BSTAR": 0.00015451, "MEAN_MOTION_DOT": 9.22e-06, "MEAN_MOTION_DDOT": 0}, "tle": {"line1": "1 64899U 25156A   25336.18267300  .00000922  00000+0  15451-3 0  9992", "line2": "2 64899  98.0036  51.6970 0016451 177.5661 182.5629 14.72028029 18986"}}, "geometry": {"type": "Point", "coordinates": [114.33389601241961, -80.93354430148028]}}, {"type": "Feature", "properties": {"norad_id": 64900, "name": "CO3D 3", "group": "resource", "lat": -40.21247150649444, "lon": 59.04098967031165, "alt_km": 631.3400557642681, "timestamp": "2025-12-02T23:34:15.171619+00:00", "meta": {"OBJECT_NAME": "CO3D 3", "OBJECT_ID": "2025-156B", "EPOCH": "2025-11-29T13:08:11.122944", "MEAN_MOTION": 15.11495615, "ECCENTRICITY": 0.01368669, "INCLINATION": 97.6723, "RA_OF_ASC_NODE": 49.0485, "ARG_OF_PERICENTER": 160.1625, "MEAN_ANOMALY": 200.5002, "EPHEMERIS_TYPE": 0, "CLASSIFICATION_TYPE": "U", "NORAD_CAT_ID": 64900, "ELEMENT_SET_NO": 999, "REV_AT_EPOCH": 1920, "BSTAR": 0.00046350794, "MEAN_MOTION_DOT": 9.779e-05, "MEAN_MOTION_DDOT": 0}, "tle": {"line1": "1 64900U 25156B   25333.54735096  .00009779  00000+0  46351-3 0  9996", "line2": "2 64900  97.6723  49.0485 0136866 160.1625 200.5002 15.11495615 19205"}}, "geometry": {"type": "Point", "coordinates": [59.04098967031165, -40.21247150649444]}}]}